ID,AD1,AD2,AD3,ZIP,CITY,STATE,CNTRY
1,Hull Village Suite,35,,49827,Michigan,MI,US
2,Christine Glen,23,,99847,West Tammyfort,FL,US
3,Michael Island,1,,55626,Hullport,GA,US
4,Brown Plaza,643,,05807,New York,KY,US
5,Jessica Squares,23,,34437,Howardborough,IL,US
6,Chang Manor,778,,77231,Washington,PA,US
7,Jonathan Pass,86,,90123,Santa Monica,IN,US
8,Sullivan Tunnel,129,,89231,West Donald,OH,US
9,Faulkner Knolls,89,,56499,Denver,MS,US
10,William Haven,132,,53912,Wenatchee,WA,US
11,Eagles Nest Drive,2518,2,51234,Wheatland,CA,US
12,Burke Street,472,1,02327,Bryantville,MA,US
13,Pheasant Ridge Road,402,2,19034,Fort Washington,MA,US
14,Jones Avenue,4196,,27104,Winston Salem,NC,US
15,Circle Drive,232,1,77036,Houston,TX,US
16,Courtright Street,4705,58755,Mcgregor,ND,US
17,Honeysuckle Lane,2990,,98520,Aberdeen,WA,US
18,Ritter Street,31,8,35816,Huntsville,AL,US
19,Jessie Street,31,19,45656,Oak Hill,OH,US
20,Marion Street,16,38,05343,Jamaica,VT,US
21,Wilson Avenue,30,76,75204,Dallas,TX,US
22,Red Bud Lane,27,,07477,Wayne,NJ,US
23,Hummingbird Way,3021,67401,Salina,KS,US
24,Grasselli Street,243,,03242,Hillsboro Upper Vill,NH,US
25,Archwood Avenue,35,,82939,Mountain View,WY,US
26,Dane Street,93,,99033,Tekoa,WA,US
27,Snider Street,62,21,80112,Centennial,CO,US
28,Oakwood Avenue,43,11,10016,Manhattan,NY,US
29,Elm Drive,1721,,10011,New York,NY,US
30,Queens Lane,572,,24541,Danville,VA,US